$$SOE
2461295.500000000, A.D. 2026-Sep-12 00:00:00.0000, -2.900871577699081E+08, -4.278960273963435E+08, -2.778036286281914E+07,
2461302.500000000, A.D. 2026-Sep-19 00:00:00.0000, -2.829286234938517E+08, -4.332614579479039E+08, -2.542488528302652E+07,
2461309.500000000, A.D. 2026-Sep-26 00:00:00.0000, -2.756713013418801E+08, -4.384756551472585E+08, -2.306053071622771E+07,
2461316.500000000, A.D. 2026-Oct-03 00:00:00.0000, -2.683179282361471E+08, -4.435371227713569E+08, -2.068814149190995E+07,
2461323.500000000, A.D. 2026-Oct-10 00:00:00.0000, -2.608712541317641E+08, -4.484444102289624E+08, -1.830855857523862E+07,
2461330.500000000, A.D. 2026-Oct-17 00:00:00.0000, -2.533340416999100E+08, -4.531961121938363E+08, -1.592262150057968E+07,
2461337.500000000, A.D. 2026-Oct-24 00:00:00.0000, -2.457090660399552E+08, -4.577908683466853E+08, -1.353116831599164E+07,
2461344.500000000, A.D. 2026-Oct-31 00:00:00.0000, -2.379991143212015E+08, -4.622273632931072E+08, -1.113503555282459E+07,
2461351.500000000, A.D. 2026-Nov-07 00:00:00.0000, -2.302069850145686E+08, -4.665043265838678E+08, -8.735058245040596E+06,
2461358.500000000, A.D. 2026-Nov-14 00:00:00.0000, -2.223354865126987E+08, -4.706205319503203E+08, -6.332069943683475E+06,
2461365.500000000, A.D. 2026-Nov-21 00:00:00.0000, -2.143874369493580E+08, -4.745747950729307E+08, -3.926902504115134E+06,
2461372.500000000, A.D. 2026-Nov-28 00:00:00.0000, -2.063656662149021E+08, -4.783659728908609E+08, -1.520385799876153E+06,
2461379.500000000, A.D. 2026-Dec-05 00:00:00.0000, -1.982730165471973E+08, -4.819929651098058E+08, 8.866522516202331E+05,
2461386.500000000, A.D. 2026-Dec-12 00:00:00.0000, -1.901123415327186E+08, -4.854547147981523E+08, 3.293385591189057E+06,
2461393.500000000, A.D. 2026-Dec-19 00:00:00.0000, -1.818865054047380E+08, -4.887502080653102E+08, 5.698990021929353E+06,
2461400.500000000, A.D. 2026-Dec-26 00:00:00.0000, -1.735983827803773E+08, -4.918784736901534E+08, 8.102643257827193E+06,
2461407.500000000, A.D. 2027-Jan-02 00:00:00.0000, -1.652508585600535E+08, -4.948385828904675E+08, 1.050352497636262E+07,
2461414.500000000, A.D. 2027-Jan-09 00:00:00.0000, -1.568468278719450E+08, -4.976296492135100E+08, 1.290081686630553E+07,
2461421.500000000, A.D. 2027-Jan-16 00:00:00.0000, -1.483891960262095E+08, -5.002508285395200E+08, 1.529370266840160E+07,
2461428.500000000, A.D. 2027-Jan-23 00:00:00.0000, -1.398808784336003E+08, -5.027013192386652E+08, 1.768136820170897E+07,
2461435.500000000, A.D. 2027-Jan-30 00:00:00.0000, -1.313248003017755E+08, -5.049803625300337E+08, 2.006300135467705E+07,
2461442.500000000, A.D. 2027-Feb-06 00:00:00.0000, -1.227238956857127E+08, -5.070872427033365E+08, 2.243779202998653E+07,
2461449.500000000, A.D. 2027-Feb-13 00:00:00.0000, -1.140811063536602E+08, -5.090212859840530E+08, 2.480493218519345E+07,
2461456.500000000, A.D. 2027-Feb-20 00:00:00.0000, -1.053993828331985E+08, -5.107818588328922E+08, 2.716361612137851E+07,
2461463.500000000, A.D. 2027-Feb-27 00:00:00.0000, -9.668168624146569E+07, -5.123683688932099E+08, 2.951304062909672E+07,
2461470.500000000, A.D. 2027-Mar-06 00:00:00.0000, -8.793098788142450E+07, -5.137802666645260E+08, 3.185240487200704E+07,
2461477.500000000, A.D. 2027-Mar-13 00:00:00.0000, -7.915026820467427E+07, -5.150170458529784E+08, 3.418091032258502E+07,
2461484.500000000, A.D. 2027-Mar-20 00:00:00.0000, -7.034251627012792E+07, -5.160782432325822E+08, 3.649776078532267E+07,
2461491.500000000, A.D. 2027-Mar-27 00:00:00.0000, -6.151072949571798E+07, -5.169634385650350E+08, 3.880216244390684E+07,
2461498.500000000, A.D. 2027-Apr-03 00:00:00.0000, -5.265791349874304E+07, -5.176722546249208E+08, 4.109332390966839E+07,
2461505.500000000, A.D. 2027-Apr-10 00:00:00.0000, -4.378708196180324E+07, -5.182043573072492E+08, 4.337045626744533E+07,
2461512.500000000, A.D. 2027-Apr-17 00:00:00.0000, -3.490125650068013E+07, -5.185594558326314E+08, 4.563277311575928E+07,
2461519.500000000, A.D. 2027-Apr-24 00:00:00.0000, -2.600346645403820E+07, -5.187373031137555E+08, 4.787949058930156E+07,
2461526.500000000, A.D. 2027-May-01 00:00:00.0000, -1.709674829502390E+07, -5.187376962566662E+08, 5.010982733900490E+07,
2461533.500000000, A.D. 2027-May-08 00:00:00.0000, -8.184144357364925E+06, -5.185604764491913E+08, 5.232300450314993E+07,
2461540.500000000, A.D. 2027-May-15 00:00:00.0000, 7.312976271547044E+05, -5.182055272829912E+08, 5.451824588506326E+07,
2461547.500000000, A.D. 2027-May-22 00:00:00.0000, 9.646522616462469E+06, -5.176727740999240E+08, 5.669477826916054E+07,
2461554.500000000, A.D. 2027-May-29 00:00:00.0000, 1.855846732827086E+07, -5.169621858304316E+08, 5.885183144767272E+07,
2461561.500000000, A.D. 2027-Jun-05 00:00:00.0000, 2.746406117828842E+07, -5.160737761925989E+08, 6.098863813321468E+07,
2461568.500000000, A.D. 2027-Jun-12 00:00:00.0000, 3.636022707958496E+07, -5.150076038203297E+08, 6.310443397702795E+07,
2461575.500000000, A.D. 2027-Jun-19 00:00:00.0000, 4.524388177256825E+07, -5.137637722553666E+08, 6.519845764718257E+07,
2461582.500000000, A.D. 2027-Jun-26 00:00:00.0000, 5.411193596557540E+07, -5.123424300639255E+08, 6.726995092002657E+07,
2461589.500000000, A.D. 2027-Jul-03 00:00:00.0000, 6.296129441896260E+07, -5.107437710689497E+08, 6.931815877366017E+07,
2461596.500000000, A.D. 2027-Jul-10 00:00:00.0000, 7.178885601058914E+07, -5.089680346885523E+08, 7.134232948095590E+07,
2461603.500000000, A.D. 2027-Jul-17 00:00:00.0000, 8.059151382042556E+07, -5.070155064190921E+08, 7.334171469588947E+07,
2461610.500000000, A.D. 2027-Jul-24 00:00:00.0000, 8.936615539219069E+07, -5.048865185257778E+08, 7.531556951415132E+07,
2461617.500000000, A.D. 2027-Jul-31 00:00:00.0000, 9.810966358472350E+07, -5.025814507058121E+08, 7.726315249016847E+07,
2461624.500000000, A.D. 2027-Aug-07 00:00:00.0000, 1.068189178132397E+08, -5.001007295729483E+08, 7.918372572370876E+07,
2461631.500000000, A.D. 2027-Aug-14 00:00:00.0000, 1.154907933798458E+08, -4.974448272168012E+08, 8.107655520681517E+07,
2461638.500000000, A.D. 2027-Aug-21 00:00:00.0000, 1.241221595122859E+08, -4.946142622003482E+08, 8.294091109948838E+07,
2461645.500000000, A.D. 2027-Aug-28 00:00:00.0000, 1.327098795433267E+08, -4.916096017921409E+08, 8.477606771790393E+07,
2461652.500000000, A.D. 2027-Sep-04 00:00:00.0000, 1.412508120508189E+08, -4.884314629313366E+08, 8.658130354830357E+07,
2461659.500000000, A.D. 2027-Sep-11 00:00:00.0000, 1.497418115639603E+08, -4.850805125869902E+08, 8.835590136067303E+07,
2461666.500000000, A.D. 2027-Sep-18 00:00:00.0000, 1.581797289697757E+08, -4.815574681614531E+08, 9.009914835688674E+07,
2461673.500000000, A.D. 2027-Sep-25 00:00:00.0000, 1.665614118495735E+08, -4.778630980149087E+08, 9.181033632594676E+07,
2461680.500000000, A.D. 2027-Oct-02 00:00:00.0000, 1.748837048213944E+08, -4.739982220826596E+08, 9.348876180159290E+07,
2461687.500000000, A.D. 2027-Oct-09 00:00:00.0000, 1.831434499120670E+08, -4.699637125886713E+08, 9.513372621973690E+07,
2461694.500000000, A.D. 2027-Oct-16 00:00:00.0000, 1.913374870235043E+08, -4.657604949092761E+08, 9.674453606540760E+07,
2461701.500000000, A.D. 2027-Oct-23 00:00:00.0000, 1.994626547547962E+08, -4.613895485921306E+08, 9.832050298512423E+07,
2461708.500000000, A.D. 2027-Oct-30 00:00:00.0000, 2.075157919562972E+08, -4.568519079199811E+08, 9.986094388069141E+07,
2461715.500000000, A.D. 2027-Nov-06 00:00:00.0000, 2.154937388530695E+08, -4.521486608910559E+08, 1.013651811838010E+08,
2461722.500000000, A.D. 2027-Nov-13 00:00:00.0000, 2.233933357523029E+08, -4.472809486913109E+08, 1.028325433238496E+08,
2461729.500000000, A.D. 2027-Nov-20 00:00:00.0000, 2.312114222369309E+08, -4.422499678422966E+08, 1.042623649437192E+08,
2461736.500000000, A.D. 2027-Nov-27 00:00:00.0000, 2.389448384642796E+08, -4.370569720583576E+08, 1.056539869571621E+08,
2461743.500000000, A.D. 2027-Dec-04 00:00:00.0000, 2.465904265478388E+08, -4.317032728979241E+08, 1.070067567080625E+08,
2461750.500000000, A.D. 2027-Dec-11 00:00:00.0000, 2.541450314734834E+08, -4.261902401716967E+08, 1.083200282034565E+08,
2461757.500000000, A.D. 2027-Dec-18 00:00:00.0000, 2.616055018272283E+08, -4.205193024460561E+08, 1.095931623678593E+08,
2461764.500000000, A.D. 2027-Dec-25 00:00:00.0000, 2.689686904883863E+08, -4.146919476435336E+08, 1.108255273055193E+08,
2461771.500000000, A.D. 2028-Jan-01 00:00:00.0000, 2.762314553308976E+08, -4.087097237254785E+08, 1.120164985687096E+08,
$$EOE